NORAD_CAT_ID,OBJECT_NAME,OBJECT_TYPE,EPOCH,MEAN_MOTION,ECCENTRICITY,INCLINATION,RA_OF_ASC_NODE,ARG_OF_PERICENTER,MEAN_ANOMALY,BSTAR,MEAN_MOTION_DOT,MEAN_MOTION_DDOT,TLE_LINE0,TLE_LINE1,TLE_LINE2,SEMIMAJOR_AXIS,PERIOD,APOGEE,PERIGEE,DECAYED
53844.0,STARLINK-4745,PAYLOAD,2023-04-10 19:28:12,15.08845585,0.0001458,53.2186,29.9491,94.4941,265.6218,-1.2115e-05,-4.81e-06,0.0,0 STARLINK-4745,1 53844U 22114AC  23100.81125890 -.00000481  00000-0 -12115-4 0  9993,2 53844  53.2186  29.9491 0001458  94.4941 265.6218 15.08845585 32367,6917.863,95.437,540.737,538.72,0.0
53844.0,STARLINK-4745,PAYLOAD,2023-04-11 05:00:30,15.0885327,0.0001245,53.2187,28.1642,91.9515,268.1619,7.7318e-05,9.43e-06,0.0,0 STARLINK-4745,1 53844U 22114AC  23101.20868801  .00000943  00000-0  77318-4 0  9990,2 53844  53.2187  28.1642 0001245  91.9515 268.1619 15.08853270 32420,6917.84,95.437,540.566,538.844,0.0
53844.0,STARLINK-4745,PAYLOAD,2023-04-12 03:15:53,15.08866494,0.0001102,53.2192,24.0022,81.7204,278.3913,0.00021223,3.094e-05,0.0,0 STARLINK-4745,1 53844U 22114AC  23102.13603782  .00003094  00000-0  21223-3 0  9991,2 53844  53.2192  24.0022 0001102  81.7204 278.3913 15.08866494 32564,6917.799,95.436,540.427,538.902,0.0
53844.0,STARLINK-4745,PAYLOAD,2023-04-12 19:09:47,15.08839347,0.0001552,53.2198,21.0317,88.061,272.056,-8.9826e-05,-1.717e-05,0.0,0 STARLINK-4745,1 53844U 22114AC  23102.79846377 -.00001717  00000-0 -89826-4 0  9998,2 53844  53.2198  21.0317 0001552  88.0610 272.0560 15.08839347 32122,6917.882,95.438,540.821,538.674,0.0
53844.0,STARLINK-4745,PAYLOAD,2023-04-13 04:42:06,15.08837948,0.0001138,53.2193,19.2447,99.13,260.9821,-0.00012466,-2.271e-05,0.0,0 STARLINK-4745,1 53844U 22114AC  23103.19590491 -.00002271  00000-0 -12466-3 0  9997,2 53844  53.2193  19.2447 0001138  99.1300 260.9821 15.08837948 32726,6917.887,95.438,540.539,538.964,0.0
53844.0,STARLINK-4745,PAYLOAD,2023-04-14 04:32:52,15.08851014,8.11e-05,53.2165,14.7854,103.6872,256.4211,-7.1321e-05,-1.423e-05,0.0,0 STARLINK-4745,1 53844U 22114AC  23104.18950011 -.00001423  00000-0 -71321-4 0  9999,2 53844  53.2165  14.7854 0000811 103.6872 256.4211 15.08851014 32339,6917.847,95.437,540.273,539.151,0.0
53844.0,STARLINK-4745,PAYLOAD,2023-04-15 02:48:16,15.08844933,9.64e-05,53.219,10.6207,102.0062,258.1038,0.00013228,1.818e-05,0.0,0 STARLINK-4745,1 53844U 22114AC  23105.11685957  .00001818  00000-0  13228-3 0  9994,2 53844  53.2190  10.6207 0000964 102.0062 258.1038 15.08844933 33011,6917.865,95.437,540.397,539.063,0.0
53844.0,STARLINK-4745,PAYLOAD,2023-04-15 21:52:54,15.08842541,9.45e-05,53.2178,7.0531,109.5003,250.6091,-3.4524e-05,-8.37e-06,0.0,0 STARLINK-4745,1 53844U 22114AC  23105.91174713 -.00000837  00000-0 -34524-4 0  9990,2 53844  53.2178   7.0531 0000945 109.5003 250.6091 15.08842541 32594,6917.873,95.437,540.391,539.084,0.0
53844.0,STARLINK-4745,PAYLOAD,2023-04-16 02:39:03,15.08850601,9.16e-05,53.2169,6.1617,90.7826,269.3271,5.1526e-05,5.33e-06,0.0,0 STARLINK-4745,1 53844U 22114AC  23106.11045983  .00000533  00000-0  51526-4 0  9991,2 53844  53.2169   6.1617 0000916  90.7826 269.3271 15.08850601 33168,6917.848,95.437,540.347,539.079,0.0
53844.0,STARLINK-4745,PAYLOAD,2023-04-16 18:32:56,15.08836345,8.71e-05,53.2177,3.1883,79.4865,280.6225,-7.6902e-05,-1.511e-05,0.0,0 STARLINK-4745,1 53844U 22114AC  23106.77287484 -.00001511  00000-0 -76902-4 0  9991,2 53844  53.2177   3.1883 0000871  79.4865 280.6225 15.08836345 32721,6917.892,95.438,540.359,539.154,0.0
53844.0,STARLINK-4745,PAYLOAD,2023-04-16 21:43:42,15.08837707,6.48e-05,53.2178,2.5946,73.1194,286.9869,-4.9463e-05,-1.075e-05,0.0,0 STARLINK-4745,1 53844U 22114AC  23106.90535262 -.00001075  00000-0 -49463-4 0  9993,2 53844  53.2178   2.5946 0000648  73.1194 286.9869 15.08837707 33281,6917.887,95.438,540.201,539.304,0.0
53844.0,STARLINK-4745,PAYLOAD,2023-04-17 02:29:51,15.08844538,9.17e-05,53.2175,1.7,118.5728,241.5357,-2.9466e-05,-7.57e-06,0.0,0 STARLINK-4745,1 53844U 22114AC  23107.10406777 -.00000757  00000-0 -29466-4 0  9991,2 53844  53.2175   1.7000 0000917 118.5728 241.5357 15.08844538 32778,6917.867,95.437,540.366,539.097,0.0
53844.0,STARLINK-4745,PAYLOAD,2023-04-17 21:34:29,15.08843426,9.68e-05,53.2173,358.1341,91.0394,269.0709,-6.9664e-05,-1.396e-05,0.0,0 STARLINK-4745,1 53844U 22114AC  23107.89894960 -.00001396  00000-0 -69664-4 0  9996,2 53844  53.2173 358.1341 0000968  91.0394 269.0709 15.08843426 33438,6917.87,95.437,540.405,539.065,0.0
53844.0,STARLINK-4745,PAYLOAD,2023-04-18 02:20:38,15.08848735,8.97e-05,53.217,357.2405,94.9981,265.1113,-2.5948e-05,-7.01e-06,0.0,0 STARLINK-4745,1 53844U 22114AC  23108.09766410 -.00000701  00000-0 -25948-4 0  9993,2 53844  53.2170 357.2405 0000897  94.9981 265.1113 15.08848735 33468,6917.854,95.437,540.339,539.098,0.0
53844.0,STARLINK-4745,PAYLOAD,2023-04-18 16:39:07,15.08833319,9.32e-05,53.2176,354.5634,100.1227,259.987,-4.3356e-05,-9.78e-06,0.0,0 STARLINK-4745,1 53844U 22114AC  23108.69383660 -.00000978  00000-0 -43356-4 0  9990,2 53844  53.2176 354.5634 0000932 100.1227 259.9870 15.08833319 33015,6917.901,95.438,540.411,539.121,0.0
53844.0,STARLINK-4745,PAYLOAD,2023-04-19 02:11:26,15.08835703,9.61e-05,53.2177,352.7785,109.8537,250.2559,-2.6907e-05,-7.16e-06,0.0,0 STARLINK-4745,1 53844U 22114AC  23109.09127527 -.00000716  00000-0 -26907-4 0  9996,2 53844  53.2177 352.7785 0000961 109.8537 250.2559 15.08835703 33618,6917.894,95.438,540.423,539.094,0.0
53844.0,STARLINK-4745,PAYLOAD,2023-04-20 02:02:13,15.08843234,0.0001086,53.219,348.3181,111.5926,248.5182,4.058e-06,-2.23e-06,0.0,0 STARLINK-4745,1 53844U 22114AC  23110.08487269 -.00000223  00000-0  40580-5 0  9995,2 53844  53.2190 348.3181 0001086 111.5926 248.5182 15.08843234 33761,6917.871,95.437,540.487,538.984,0.0
53844.0,STARLINK-4745,PAYLOAD,2023-04-20 22:42:14,15.08833977,0.0001087,53.2184,344.4522,100.9778,259.1336,7.715e-06,-1.65e-06,0.0,0 STARLINK-4745,1 53844U 22114AC  23110.94600128 -.00000165  00000-0  77150-5 0  9999,2 53844  53.2184 344.4522 0001087 100.9778 259.1336 15.08833977 33894,6917.899,95.438,540.516,539.012,0.0
53844.0,STARLINK-4745,PAYLOAD,2023-04-21 00:17:37,15.08831818,9.99e-05,53.219,344.155,98.8766,261.2339,-1.4043e-05,-5.11e-06,0.0,0 STARLINK-4745,1 53844U 22114AC  23111.01224306 -.00000511  00000-0 -14043-4 0  9995,2 53844  53.2190 344.1550 0000999  98.8766 261.2339 15.08831818 33363,6917.905,95.438,540.461,539.079,0.0
53844.0,STARLINK-4745,PAYLOAD,2023-04-21 08:14:33,15.08837234,8.56e-05,53.2176,342.6685,99.6386,260.4703,3.4533e-05,2.62e-06,0.0,0 STARLINK-4745,1 53844U 22114AC  23111.34343912  .00000262  00000-0  34533-4 0  9993,2 53844  53.2176 342.6685 0000856  99.6386 260.4703 15.08837234 33957,6917.889,95.438,540.346,539.162,0.0
53844.0,STARLINK-4745,PAYLOAD,2023-04-21 17:46:52,15.0884196,0.0001012,53.2179,340.8864,115.0773,245.0325,-4.7566e-05,-1.045e-05,0.0,0 STARLINK-4745,1 53844U 22114AC  23111.74088107 -.00001045  00000-0 -47566-4 0  9991,2 53844  53.2179 340.8864 0001012 115.0773 245.0325 15.08841960 34015,6917.874,95.437,540.439,539.039,0.0
53844.0,STARLINK-4745,PAYLOAD,2023-04-22 00:08:24,15.08849099,0.0001196,53.2189,339.6986,119.1061,241.0051,1.0329e-05,-1.23e-06,0.0,0 STARLINK-4745,1 53844U 22114AC  23112.00583389 -.00000123  00000-0  10329-4 0  9995,2 53844  53.2189 339.6986 0001196 119.1061 241.0051 15.08849099 33512,6917.853,95.437,540.545,538.89,0.0
53844.0,STARLINK-4745,PAYLOAD,2023-04-22 17:37:38,15.08839089,0.0001162,53.2182,336.4283,112.3859,247.7257,3.4848e-05,2.67e-06,0.0,0 STARLINK-4745,1 53844U 22114AC  23112.73447845  .00000267  00000-0  34848-4 0  9991,2 53844  53.2182 336.4283 0001162 112.3859 247.7257 15.08839089 33624,6917.883,95.438,540.552,538.944,0.0
53844.0,STARLINK-4745,PAYLOAD,2023-04-23 14:17:39,15.08837956,0.0001245,53.2184,332.5634,78.8095,281.3037,-3.4594e-05,-8.38e-06,0.0,0 STARLINK-4745,1 53844U 22114AC  23113.59560176 -.00000838  00000-0 -34594-4 0  9993,2 53844  53.2184 332.5634 0001245  78.8095 281.3037 15.08837956 34298,6917.887,95.438,540.613,538.89,0.0
53844.0,STARLINK-4745,PAYLOAD,2023-04-23 17:28:26,15.08837213,0.000115,53.2184,331.9687,82.7711,277.3411,-3.9903e-05,-9.23e-06,0.0,0 STARLINK-4745,1 53844U 22114AC  23113.72808197 -.00000923  00000-0 -39903-4 0  9990,2 53844  53.2184 331.9687 0001150  82.7711 277.3411 15.08837213 34313,6917.889,95.438,540.549,538.958,0.0
53844.0,STARLINK-4745,PAYLOAD,2023-04-24 01:25:21,15.08846624,0.0001443,53.2167,330.4817,68.6491,291.4655,-2.7579e-05,-7.27e-06,0.0,0 STARLINK-4745,1 53844U 22114AC  23114.05927509 -.00000727  00000-0 -27579-4 0  9994,2 53844  53.2167 330.4817 0001443  68.6491 291.4655 15.08846624 34364,6917.86,95.437,540.723,538.727,0.0
53844.0,STARLINK-4745,PAYLOAD,2023-04-25 01:16:04,15.08877331,9.07e-05,53.2174,326.0196,80.5755,279.534,0.00019058,2.75e-05,0.0,0 STARLINK-4745,1 53844U 22114AC  23115.05283474  .00002750  00000-0  19058-3 0  9999,2 53844  53.2174 326.0196 0000907  80.5755 279.5340 15.08877331 33976,6917.766,95.435,540.259,539.004,0.0
53844.0,STARLINK-4745,PAYLOAD,2023-04-25 20:20:48,15.08810612,0.0001737,53.218,322.4472,87.8785,272.2406,-0.0003389,-5.673e-05,0.0,0 STARLINK-4745,1 53844U 22114AC  23115.84778513 -.00005673  00000-0 -33890-3 0  9998,2 53844  53.2180 322.4472 0001737  87.8785 272.2406 15.08810612 34091,6917.97,95.439,541.037,538.634,0.0
53844.0,STARLINK-4745,PAYLOAD,2023-04-26 01:06:58,15.0880375,0.0001017,53.218,321.555,78.3333,281.7773,-0.00037218,-6.2e-05,0.0,0 STARLINK-4745,1 53844U 22114AC  23116.04651429 -.00006200  00000-0 -37218-3 0  9992,2 53844  53.2180 321.5550 0001017  78.3333 281.7773 15.08803750 34124,6917.991,95.44,540.56,539.153,0.0
53844.0,STARLINK-4745,PAYLOAD,2023-04-26 20:11:32,15.08858044,0.0001977,53.2156,317.9913,75.698,284.4232,-0.00011646,-2.142e-05,0.0,0 STARLINK-4745,1 53844U 22114AC  23116.84135200 -.00002142  00000-0 -11646-3 0  9992,2 53844  53.2156 317.9913 0001977  75.6980 284.4232 15.08858044 34780,6917.825,95.436,541.058,538.323,0.0
